[{"OBJECT_NAME":"STARLINK-5578","OBJECT_ID":"2023-013AV","EPOCH":"2026-03-09T01:00:28.004256","MEAN_MOTION":15.02538729,"ECCENTRICITY":0.00011839,"INCLINATION":43.0054,"RA_OF_ASC_NODE":316.6999,"ARG_OF_PERICENTER":277.8174,"MEAN_ANOMALY":82.2534,"EPHEMERIS_TYPE":0,"CLASSIFICATION_TYPE":"U","NORAD_CAT_ID":55374,"ELEMENT_SET_NO":999,"REV_AT_EPOCH":17146,"BSTAR":5.6406719e-5,"MEAN_MOTION_DOT":5.58e-6,"MEAN_MOTION_DDOT":0},{"OBJECT_NAME":"SL-3 R\/B","OBJECT_ID":"1982-039B","EPOCH":"2026-03-09T22:07:28.779168","MEAN_MOTION":15.10083319,"ECCENTRICITY":0.00297187,"INCLINATION":81.1583,"RA_OF_ASC_NODE":215.6942,"ARG_OF_PERICENTER":323.7089,"MEAN_ANOMALY":36.212,"EPHEMERIS_TYPE":0,"CLASSIFICATION_TYPE":"U","NORAD_CAT_ID":13154,"ELEMENT_SET_NO":999,"REV_AT_EPOCH":38167,"BSTAR":0.00020843464,"MEAN_MOTION_DOT":3.451e-5,"MEAN_MOTION_DDOT":0}]
